CCSDS_OMM_VERS = 2.0
CREATION_DATE  = 
ORIGINATOR     = 

OBJECT_NAME    = ATLAS CENTAUR 2
OBJECT_ID      = 1963-047A
CENTER_NAME    = EARTH
REF_FRAME      = TEME
TIME_SYSTEM    = UTC
MEAN_ELEMENT_THEORY = SGP/SGP4

EPOCH          = 2026-03-21T11:50:43.965888
MEAN_MOTION    = 14.12109735
ECCENTRICITY   = .05474302
INCLINATION    = 30.3536
RA_OF_ASC_NODE = 129.6725
ARG_OF_PERICENTER = 184.3176
MEAN_ANOMALY   = 175.2559

EPHEMERIS_TYPE = 0
CLASSIFICATION_TYPE = U
NORAD_CAT_ID   = 694
ELEMENT_SET_NO = 999
REV_AT_EPOCH   = 13329
BSTAR          = .22004576E-3
MEAN_MOTION_DOT = .1909E-4
MEAN_MOTION_DDOT = 0

CCSDS_OMM_VERS = 2.0
CREATION_DATE  = 
ORIGINATOR     = 

OBJECT_NAME    = THOR AGENA D R/B
OBJECT_ID      = 1964-002A
CENTER_NAME    = EARTH
REF_FRAME      = TEME
TIME_SYSTEM    = UTC
MEAN_ELEMENT_THEORY = SGP/SGP4

EPOCH          = 2026-03-22T06:58:34.532544
MEAN_MOTION    = 14.34026619
ECCENTRICITY   = .00322679
INCLINATION    = 99.1220
RA_OF_ASC_NODE = 95.3149
ARG_OF_PERICENTER = 220.4671
MEAN_ANOMALY   = 139.4111

EPHEMERIS_TYPE = 0
CLASSIFICATION_TYPE = U
NORAD_CAT_ID   = 733
ELEMENT_SET_NO = 999
REV_AT_EPOCH   = 24010
BSTAR          = .72818646E-4
MEAN_MOTION_DOT = .156E-5
MEAN_MOTION_DDOT = 0

CCSDS_OMM_VERS = 2.0
CREATION_DATE  = 
ORIGINATOR     = 

OBJECT_NAME    = SL-3 R/B
OBJECT_ID      = 1964-053B
CENTER_NAME    = EARTH
REF_FRAME      = TEME
TIME_SYSTEM    = UTC
MEAN_ELEMENT_THEORY = SGP/SGP4

EPOCH          = 2026-03-22T06:48:35.498880
MEAN_MOTION    = 14.61376605
ECCENTRICITY   = .00801942
INCLINATION    = 65.0763
RA_OF_ASC_NODE = 294.3140
ARG_OF_PERICENTER = 288.2584
MEAN_ANOMALY   = 70.9801

EPHEMERIS_TYPE = 0
CLASSIFICATION_TYPE = U
NORAD_CAT_ID   = 877
ELEMENT_SET_NO = 999
REV_AT_EPOCH   = 26863
BSTAR          = .53959659E-4
MEAN_MOTION_DOT = .153E-5
MEAN_MOTION_DDOT = 0

CCSDS_OMM_VERS = 2.0
CREATION_DATE  = 
ORIGINATOR     = 

OBJECT_NAME    = SL-8 R/B
OBJECT_ID      = 1967-045B
CENTER_NAME    = EARTH
REF_FRAME      = TEME
TIME_SYSTEM    = UTC
MEAN_ELEMENT_THEORY = SGP/SGP4

EPOCH          = 2026-03-22T02:24:47.335968
MEAN_MOTION    = 14.45632553
ECCENTRICITY   = .00646798
INCLINATION    = 74.0124
RA_OF_ASC_NODE = 324.9132
ARG_OF_PERICENTER = 328.3838
MEAN_ANOMALY   = 31.3440

EPHEMERIS_TYPE = 0
CLASSIFICATION_TYPE = U
NORAD_CAT_ID   = 2802
ELEMENT_SET_NO = 999
REV_AT_EPOCH   = 9081
BSTAR          = .89949852E-4
MEAN_MOTION_DOT = .297E-5
MEAN_MOTION_DDOT = 0

CCSDS_OMM_VERS = 2.0
CREATION_DATE  = 
ORIGINATOR     = 

OBJECT_NAME    = SL-8 R/B
OBJECT_ID      = 1968-040B
CENTER_NAME    = EARTH
REF_FRAME      = TEME
TIME_SYSTEM    = UTC
MEAN_ELEMENT_THEORY = SGP/SGP4

EPOCH          = 2026-03-22T00:30:33.971328
MEAN_MOTION    = 15.03333330
ECCENTRICITY   = .00234521
INCLINATION    = 74.0292
RA_OF_ASC_NODE = 288.4946
ARG_OF_PERICENTER = 107.4811
MEAN_ANOMALY   = 252.8944

EPHEMERIS_TYPE = 0
CLASSIFICATION_TYPE = U
NORAD_CAT_ID   = 3230
ELEMENT_SET_NO = 999
REV_AT_EPOCH   = 9186
BSTAR          = .23471702E-3
MEAN_MOTION_DOT = .3164E-4
MEAN_MOTION_DDOT = 0

CCSDS_OMM_VERS = 2.0
CREATION_DATE  = 
ORIGINATOR     = 

OBJECT_NAME    = OAO 2
OBJECT_ID      = 1968-110A
CENTER_NAME    = EARTH
REF_FRAME      = TEME
TIME_SYSTEM    = UTC
MEAN_ELEMENT_THEORY = SGP/SGP4

EPOCH          = 2026-03-21T23:51:07.470144
MEAN_MOTION    = 14.47314543
ECCENTRICITY   = .00061738
INCLINATION    = 34.9925
RA_OF_ASC_NODE = 196.5239
ARG_OF_PERICENTER = 294.4719
MEAN_ANOMALY   = 65.5328

EPHEMERIS_TYPE = 0
CLASSIFICATION_TYPE = U
NORAD_CAT_ID   = 3597
ELEMENT_SET_NO = 999
REV_AT_EPOCH   = 2088
BSTAR          = .70198922E-4
MEAN_MOTION_DOT = .242E-5
MEAN_MOTION_DDOT = 0

CCSDS_OMM_VERS = 2.0
CREATION_DATE  = 
ORIGINATOR     = 

OBJECT_NAME    = ISIS 1
OBJECT_ID      = 1969-009A
CENTER_NAME    = EARTH
REF_FRAME      = TEME
TIME_SYSTEM    = UTC
MEAN_ELEMENT_THEORY = SGP/SGP4

EPOCH          = 2026-03-22T04:46:05.325600
MEAN_MOTION    = 11.30417602
ECCENTRICITY   = .17078687
INCLINATION    = 88.4520
RA_OF_ASC_NODE = 153.9440
ARG_OF_PERICENTER = 63.9285
MEAN_ANOMALY   = 312.7362

EPHEMERIS_TYPE = 0
CLASSIFICATION_TYPE = U
NORAD_CAT_ID   = 3669
ELEMENT_SET_NO = 999
REV_AT_EPOCH   = 34994
BSTAR          = .91943094E-4
MEAN_MOTION_DOT = .15E-5
MEAN_MOTION_DDOT = 0

CCSDS_OMM_VERS = 2.0
CREATION_DATE  = 
ORIGINATOR     = 

OBJECT_NAME    = SERT 2
OBJECT_ID      = 1970-009A
CENTER_NAME    = EARTH
REF_FRAME      = TEME
TIME_SYSTEM    = UTC
MEAN_ELEMENT_THEORY = SGP/SGP4

EPOCH          = 2026-03-22T07:15:08.858304
MEAN_MOTION    = 13.58730929
ECCENTRICITY   = .00054782
INCLINATION    = 99.2776
RA_OF_ASC_NODE = 23.7067
ARG_OF_PERICENTER = 126.0512
MEAN_ANOMALY   = 352.8644

EPHEMERIS_TYPE = 0
CLASSIFICATION_TYPE = U
NORAD_CAT_ID   = 4327
ELEMENT_SET_NO = 999
REV_AT_EPOCH   = 78160
BSTAR          = .67215296E-4
MEAN_MOTION_DOT = .8E-7
MEAN_MOTION_DDOT = 0

CCSDS_OMM_VERS = 2.0
CREATION_DATE  = 
ORIGINATOR     = 

OBJECT_NAME    = SL-3 R/B
OBJECT_ID      = 1971-028B
CENTER_NAME    = EARTH
REF_FRAME      = TEME
TIME_SYSTEM    = UTC
MEAN_ELEMENT_THEORY = SGP/SGP4

EPOCH          = 2026-03-22T06:41:43.797696
MEAN_MOTION    = 15.62206608
ECCENTRICITY   = .0013806
INCLINATION    = 81.2379
RA_OF_ASC_NODE = 36.4685
ARG_OF_PERICENTER = 231.1684
MEAN_ANOMALY   = 128.8338

EPHEMERIS_TYPE = 0
CLASSIFICATION_TYPE = U
NORAD_CAT_ID   = 5118
ELEMENT_SET_NO = 999
REV_AT_EPOCH   = 99063
BSTAR          = .47901587E-3
MEAN_MOTION_DOT = .42472E-3
MEAN_MOTION_DDOT = 0

CCSDS_OMM_VERS = 2.0
CREATION_DATE  = 
ORIGINATOR     = 

OBJECT_NAME    = ASTEX 1
OBJECT_ID      = 1971-089A
CENTER_NAME    = EARTH
REF_FRAME      = TEME
TIME_SYSTEM    = UTC
MEAN_ELEMENT_THEORY = SGP/SGP4

EPOCH          = 2026-03-22T05:41:57.185088
MEAN_MOTION    = 14.50782275
ECCENTRICITY   = .00171612
INCLINATION    = 92.7103
RA_OF_ASC_NODE = 155.8159
ARG_OF_PERICENTER = 48.5229
MEAN_ANOMALY   = 311.7447

EPHEMERIS_TYPE = 0
CLASSIFICATION_TYPE = U
NORAD_CAT_ID   = 5560
ELEMENT_SET_NO = 999
REV_AT_EPOCH   = 86412
BSTAR          = .10654504E-3
MEAN_MOTION_DOT = .419E-5
MEAN_MOTION_DDOT = 0

CCSDS_OMM_VERS = 2.0
CREATION_DATE  = 
ORIGINATOR     = 

OBJECT_NAME    = SL-8 R/B
OBJECT_ID      = 1971-119B
CENTER_NAME    = EARTH
REF_FRAME      = TEME
TIME_SYSTEM    = UTC
MEAN_ELEMENT_THEORY = SGP/SGP4

EPOCH          = 2026-03-22T05:59:35.523744
MEAN_MOTION    = 14.38118524
ECCENTRICITY   = .05471214
INCLINATION    = 73.8862
RA_OF_ASC_NODE = 152.2387
ARG_OF_PERICENTER = 116.2220
MEAN_ANOMALY   = 249.6237

EPHEMERIS_TYPE = 0
CLASSIFICATION_TYPE = U
NORAD_CAT_ID   = 5730
ELEMENT_SET_NO = 999
REV_AT_EPOCH   = 65729
BSTAR          = .51801276E-3
MEAN_MOTION_DOT = .9914E-4
MEAN_MOTION_DDOT = 0

CCSDS_OMM_VERS = 2.0
CREATION_DATE  = 
ORIGINATOR     = 

OBJECT_NAME    = OAO 3 (COPERNICUS)
OBJECT_ID      = 1972-065A
CENTER_NAME    = EARTH
REF_FRAME      = TEME
TIME_SYSTEM    = UTC
MEAN_ELEMENT_THEORY = SGP/SGP4

EPOCH          = 2026-03-22T03:14:58.274880
MEAN_MOTION    = 14.60007650
ECCENTRICITY   = .00073235
INCLINATION    = 35.0048
RA_OF_ASC_NODE = 226.4058
ARG_OF_PERICENTER = 263.9043
MEAN_ANOMALY   = 269.8241

EPHEMERIS_TYPE = 0
CLASSIFICATION_TYPE = U
NORAD_CAT_ID   = 6153
ELEMENT_SET_NO = 999
REV_AT_EPOCH   = 84801
BSTAR          = .74851477E-4
MEAN_MOTION_DOT = .344E-5
MEAN_MOTION_DDOT = 0

